{"type": "FeatureCollection", "features": [ {"type": "Feature", "properties": {"norad_id": 64901, "name": "CO3D 4", "group": "resource", "lat": -60.27899693786118, "lon": 67.66446083578774, "alt_km": 512.0994560275749, "timestamp": "2025-12-03T22:42:32.314692+00:00", "meta": {"OBJECT_NAME": "CO3D 4", "OBJECT_ID": "2025-156C", "EPOCH": "2025-12-01T18:50:45.474720", "MEAN_MOTION": 15.20204195, "ECCENTRICITY": 0.00012108, "INCLINATION": 97.4354, "RA_OF_ASC_NODE": 52.3098, "ARG_OF_PERICENTER": 238.3057, "MEAN_ANOMALY": 121.806, "EPHEMERIS_TYPE": 0, "CLASSIFICATION_TYPE": "U", "NORAD_CAT_ID": 64901, "ELEMENT_SET_NO": 999, "REV_AT_EPOCH": 1954, "BSTAR": -1.4420799e-05, "MEAN_MOTION_DOT": -3.8e-06, "MEAN_MOTION_DDOT": 0}, "tle": {"line1": "1 64901U 25156C   25335.78524855 -.00000380  00000+0 -14421-4 0  9999", "line2": "2 64901  97.4354  52.3098 0001210 238.3057 121.8060 15.20204195 19549"}}, "geometry": {"type": "Point", "coordinates": [67.66446083578774, -60.27899693786118]}}, {"type": "Feature", "properties": {"norad_id": 64902, "name": "CO3D 2", "group": "resource", "lat": 57.83299345205405, "lon": -113.67668680977019, "alt_km": 498.95046356340026, "timestamp": "2025-12-03T22:42:32.314701+00:00", "meta": {"OBJECT_NAME": "CO3D 2", "OBJECT_ID": "2025-156D", "EPOCH": "2025-12-03T11:07:08.765760", "MEAN_MOTION": 15.20218594, "ECCENTRICITY": 9.87e-05, "INCLINATION": 97.4353, "RA_OF_ASC_NODE": 53.8628, "ARG_OF_PERICENTER": 114.8163, "MEAN_ANOMALY": 245.3175, "EPHEMERIS_TYPE": 0, "CLASSIFICATION_TYPE": "U", "NORAD_CAT_ID": 64902, "ELEMENT_SET_NO": 999, "REV_AT_EPOCH": 1979, "BSTAR": 0.000399, "MEAN_MOTION_DOT": 8.584e-05, "MEAN_MOTION_DDOT": 0}, "tle": {"line1": "1 64902U 25156D   25337.46329590  .00008584  00000+0  39900-3 0  9996", "line2": "2 64902  97.4353  53.8628 0000987 114.8163 245.3175 15.20218594 19794"}}, "geometry": {"type": "Point", "coordinates": [-113.67668680977019, 57.83299345205405]}}, {"type": "Feature", "properties": {"norad_id": 64903, "name": "CO3D 1", "group": "resource", "lat": 58.710459645534534, "lon": -113.25286958353468, "alt_km": 498.9133974646893, "timestamp": "2025-12-03T22:42:32.314709+00:00", "meta": {"OBJECT_NAME": "CO3D 1", "OBJECT_ID": "2025-156E", "EPOCH": "2025-12-03T11:07:22.417824", "MEAN_MOTION": 15.20196589, "ECCENTRICITY": 9.92e-05, "INCLINATION": 97.4353, "RA_OF_ASC_NODE": 53.8628, "ARG_OF_PERICENTER": 114.4623, "MEAN_ANOMALY": 245.6716, "EPHEMERIS_TYPE": 0, "CLASSIFICATION_TYPE": "U", "NORAD_CAT_ID": 64903, "ELEMENT_SET_NO": 999, "REV_AT_EPOCH": 1979, "BSTAR": 0.00032332, "MEAN_MOTION_DOT": 6.937e-05, "MEAN_MOTION_DDOT": 0}, "tle": {"line1": "1 64903U 25156E   25337.46345391  .00006937  00000+0  32332-3 0  9996", "line2": "2 64903  97.4353  53.8628 0000992 114.4623 245.6716 15.20196589 19791"}}, "geometry": {"type": "Point", "coordinates": [-113.25286958353468, 58.710459645534534]}}, {"type": "Feature", "properties": {"norad_id": 66514, "name": "SENTINEL-6B", "group": "resource", "lat": 25.975365726079474, "lon": -11.729254867163537, "alt_km": 1320.0633473311664, "timestamp": "2025-12-03T22:42:32.314719+00:00", "meta": {"OBJECT_NAME": "SENTINEL-6B", "OBJECT_ID": "2025-264A", "EPOCH": "2025-12-03T12:35:26.831040", "MEAN_MOTION": 12.85877502, "ECCENTRICITY": 0.0011536, "INCLINATION": 66.0389, "RA_OF_ASC_NODE": 181.6659, "ARG_OF_PERICENTER": 268.6185, "MEAN_ANOMALY": 91.3511, "EPHEMERIS_TYPE": 0, "CLASSIFICATION_TYPE": "U", "NORAD_CAT_ID": 66514, "ELEMENT_SET_NO": 999, "REV_AT_EPOCH": 210, "BSTAR": 0.00029302, "MEAN_MOTION_DOT": 1e-07, "MEAN_MOTION_DDOT": 0}, "tle": {"line1": "1 66514U 25264A   25337.52461610  .00000010  00000+0  29302-3 0  9995", "line2": "2 66514  66.0389 181.6659 0011536 268.6185  91.3511 12.85877502  2102"}}, "geometry": {"type": "Point", "coordinates": [-11.729254867163537, 25.975365726079474]}}]}